ONEWEB-0171             
1 48070U 21025AE  24262.55448897 -.00000183  00000+0 -53592-3 0  9995
2 48070  87.8852  86.9232 0001804  92.1471 267.9865 13.13469516170040
ONEWEB-0172             
1 48071U 21025AF  24262.53385700 -.00000076  00000+0 -24370-3 0  9990
2 48071  87.8855  86.8939 0001892  91.6909 268.4437 13.13468867170931
ONEWEB-0174             
1 48072U 21025AG  24262.51640886  .00000336  00000+0  88408-3 0  9997
2 48072  87.8853  86.9116 0001675  83.3213 276.8107 13.13469064170255
ONEWEB-0175             
1 48073U 21025AH  24262.54497275 -.00000296  00000+0 -84658-3 0  9993
2 48073  87.8846  86.8886 0001812 100.3409 259.7924 13.13468730169918
ONEWEB-0108             
1 48076U 21025AL  24262.53545073 -.00000165  00000+0 -48811-3 0  9991
2 48076  87.8849  86.8967 0001508  84.5021 275.6280 13.13468232170077
ONEWEB-0169             
1 48077U 21025AM  24262.49102726  .00000109  00000+0  26284-3 0  9997
2 48077  87.8847  86.9181 0001539  84.0521 276.0783 13.13470931168720
